ONEWEB-0661             
1 55821U 23029AB  23351.35707098 -.00000009  00000+0 -58541-4 0  9997
2 55821  87.8984 111.4408 0001143 120.0944 240.0299 13.14502322 40154
ONEWEB-0662             
1 55822U 23029AC  23351.39194364  .00000153  00000+0  37870-3 0  9997
2 55822  87.8980 111.4417 0001475 124.1904 235.9365 13.14501296 40224
ONEWEB-0663             
1 55823U 23029AD  23351.32846549  .00000631  00000+0  15200-2 0  9993
2 55823  87.9201  96.1813 0001501 123.7275 236.4001 13.20769160 41325
ONEWEB-0664             
1 55824U 23029AE  23350.86760540  .00000059  00000+0  11345-3 0  9999
2 55824  87.9203  96.2851 0001232 106.7039 253.4230 13.20763317 41276
ONEWEB-0665             
1 55825U 23029AF  23350.89719071 -.00000117  00000+0 -35038-3 0  9998
2 55825  87.8982 111.5075 0001336 120.5240 239.6021 13.14502192 39425
ONEWEB-0666             
1 55826U 23029AG  23351.31584106  .00001058  00000+0  25706-2 0  9999
2 55826  87.9203  96.1881 0002029  94.3815 265.7551 13.20770827 41332
ONEWEB-0667             
1 55827U 23029AH  23350.85497773  .00000097  00000+0  20744-3 0  9991
2 55827  87.9202  96.2135 0001280 111.2328 248.8942 13.20762633 41265
ONEWEB-0669             
1 55828U 23029AJ  23350.85022246  .00000087  00000+0  18165-3 0  9994
2 55828  87.9202  96.2528 0001543  75.8488 284.2817 13.20743038 40583
